OBJECT_NAME,OBJECT_ID,EPOCH,MEAN_MOTION,ECCENTRICITY,INCLINATION,RA_OF_ASC_NODE,ARG_OF_PERICENTER,MEAN_ANOMALY,EPHEMERIS_TYPE,CLASSIFICATION_TYPE,NORAD_CAT_ID,ELEMENT_SET_NO,REV_AT_EPOCH,BSTAR,MEAN_MOTION_DOT,MEAN_MOTION_DDOT
STARLINK-4685,2022-107K,2026-07-11T19:01:05.723040,15.08832906,.0001279,53.1608,51.4569,84.2310,275.8827,0,U,53709,999,21321,.28532716E-4,.166E-5,0
STARLINK-4627,2022-107M,2026-07-11T18:41:16.906560,15.35319108,.00017675,53.1610,48.5643,55.7655,304.3516,0,U,53711,999,21325,-.49743172E-3,-.17647E-3,0
STARLINK-4683,2022-107N,2026-07-11T18:39:52.813440,15.08831444,.00015413,53.1612,51.3743,85.8252,274.2916,0,U,53712,999,21323,-.5101346E-5,-.369E-5,0
STARLINK-4686,2022-107R,2026-07-11T18:00:02.000160,15.30200933,.00014118,53.1607,54.9592,97.4023,166.8932,0,U,53715,999,567,.66274705E-3,.19321E-3,0
STARLINK-4699,2022-107S,2026-07-11T18:00:02.000160,15.24404435,.00008613,53.1587,56.0347,76.6636,352.7976,0,U,53716,999,567,.19629869E-3,.454E-4,0
STARLINK-4695,2022-107U,2026-07-11T18:00:02.000160,15.21946629,.00001403,53.1592,56.8528,133.1381,230.9784,0,U,53718,999,572,.28530045E-3,.6264E-4,0
STARLINK-4644,2022-107V,2026-07-11T17:15:45.671904,15.08831364,.00012678,53.1604,26.7163,84.8546,275.2590,0,U,53719,999,21356,.22292416E-4,.67E-6,0
STARLINK-4642,2022-107W,2026-07-11T18:00:02.000160,15.35398913,.00012627,53.1600,54.4156,102.7627,80.0249,0,U,53720,999,567,-.26502651E-3,-.9613E-4,0
STARLINK-4707,2022-107X,2026-07-11T18:00:02.000160,15.22765531,.00009112,53.1592,56.0717,116.5013,296.7548,0,U,53721,999,572,.27208968E-3,.6109E-4,0
STARLINK-4700,2022-107Y,2026-07-11T18:00:02.000160,15.23578217,.00010284,53.1591,56.0147,120.5777,321.3987,0,U,53722,999,572,.31566892E-3,.7321E-4,0
STARLINK-4705,2022-107Z,2026-07-11T18:00:02.000160,15.19525417,.00021243,53.1595,55.9984,89.1722,3.5546,0,U,53723,999,557,.35922164E-3,.7414E-4,0
STARLINK-4663,2022-107AA,2026-07-11T18:00:02.000160,15.27362767,.00012762,53.1596,55.2089,97.3235,39.4822,0,U,53724,999,572,.48443006E-3,.12826E-3,0
STARLINK-4697,2022-107AC,2026-07-11T18:00:02.000160,15.24572744,.00019084,53.1591,55.9780,68.1754,33.1769,0,U,53726,999,572,.19929767E-3,.4639E-4,0
STARLINK-4701,2022-107AD,2026-07-11T18:00:02.000160,15.22795857,.00010893,53.1594,56.1069,97.5370,297.8309,0,U,53727,999,556,.26615026E-3,.5974E-4,0
STARLINK-4640,2022-107AE,2026-07-11T18:11:44.013120,15.35256298,.00011815,53.1608,54.1209,198.9912,161.1047,0,U,53728,999,21332,.60549512E-3,.20702E-3,0
STARLINK-4651,2022-107AF,2026-07-10T00:42:03.686976,15.09991841,.00013512,53.1616,64.6261,93.6811,266.4335,0,U,53729,999,21305,.14855877E-4,-.47E-6,0
STARLINK-4641,2022-107AG,2026-07-11T18:57:39.668544,15.35402989,.0001293,53.1603,54.3152,90.7304,269.3847,0,U,53730,999,21332,.10656902E-3,.3339E-4,0
STARLINK-4636,2022-107AH,2026-07-11T17:54:05.927616,15.17787140,.00048463,53.2119,51.4857,145.3571,214.7741,0,U,53731,999,21339,.86593568E-3,.17443E-3,0
STARLINK-4661,2022-107AJ,2026-07-11T18:00:02.000160,15.32305605,.00009754,53.1609,54.7450,67.4949,308.6270,0,U,53732,999,572,.47788992E-3,.14776E-3,0
STARLINK-4574,2022-107AK,2026-07-11T18:08:52.135008,15.33551550,.00012954,53.1601,54.1117,95.7955,264.3195,0,U,53733,999,21335,.67881893E-4,.186E-4,0
STARLINK-4616,2022-107AL,2026-07-11T18:00:02.000160,15.20217661,.00016991,53.1609,56.5314,74.3216,103.3837,0,U,53734,999,572,.52467293E-3,.11209E-3,0
STARLINK-4618,2022-107AM,2026-07-11T18:00:02.000160,15.33483990,.0001844,53.1612,64.4169,84.7089,91.8091,0,U,53735,999,572,.87649464E-3,.28504E-3,0
STARLINK-4652,2022-107AN,2026-07-11T18:00:02.000160,15.30950349,.00017455,53.1595,55.0182,91.0097,146.5468,0,U,53736,999,572,.65340849E-3,.19498E-3,0
STARLINK-4662,2022-107AQ,2026-07-11T18:00:02.000160,15.35339381,.00012664,53.1606,64.4790,86.2651,57.3671,0,U,53738,999,572,.48597088E-3,.16576E-3,0
STARLINK-4607,2022-107AS,2026-07-11T18:00:02.000160,15.25107367,.00009444,53.1597,64.9414,85.0397,184.3648,0,U,53740,999,572,.83773122E-3,.20966E-3,0
STARLINK-4637,2022-107AU,2026-07-11T18:00:02.000160,15.33166441,.00011282,53.1730,64.6776,103.0416,300.5273,0,U,53742,999,556,.68829087E-2,.230275E-2,0
STARLINK-4645,2022-107AV,2026-07-11T06:07:03.076608,15.35397238,.0001202,53.1612,66.6530,83.7608,276.3532,0,U,53743,999,21328,.16528001E-4,.196E-5,0
STARLINK-4670,2022-107AW,2026-07-11T18:56:27.016512,15.08834724,.00014891,53.1607,66.3968,79.8254,280.2905,0,U,53744,999,21333,.43681009E-4,.407E-5,0
STARLINK-4656,2022-107AX,2026-07-11T18:00:02.000160,15.35410982,.00010892,53.1609,64.4039,80.3528,103.9886,0,U,53745,999,572,-.34658578E-3,-.12454E-3,0
STARLINK-4589,2022-107AY,2026-07-11T18:00:02.000160,15.33563712,.00012146,53.1608,64.4754,87.8349,59.8074,0,U,53746,999,571,-.45526034E-3,-.15322E-3,0
