[ {"name": "STARLINK-4685", "line1": "1 53709U 22107K   26192.79242735  .00000166  00000+0  28533-4 0  9992", "line2": "2 53709  53.1608  51.4569 0001279  84.2310 275.8827 15.08832906213216"}, {"name": "STARLINK-4627", "line1": "1 53711U 22107M   26192.77866790 -.00017647  00000+0 -49743-3 0  9995", "line2": "2 53711  53.1610  48.5643 0001767  55.7655 304.3516 15.35319108213250"}, {"name": "STARLINK-4683", "line1": "1 53712U 22107N   26192.77769460 -.00000369  00000+0 -51013-5 0  9990", "line2": "2 53712  53.1612  51.3743 0001541  85.8252 274.2916 15.08831444213232"}, {"name": "STARLINK-4686", "line1": "1 53715U 22107R   26192.75002315  .00019321  00000+0  66275-3 0  9990", "line2": "2 53715  53.1607  54.9592 0001411  97.4023 166.8932 15.30200933  5670"}, {"name": "STARLINK-4699", "line1": "1 53716U 22107S   26192.75002315  .00004540  00000+0  19630-3 0  9991", "line2": "2 53716  53.1587  56.0347 0000861  76.6636 352.7976 15.24404435  5676"}, {"name": "STARLINK-4695", "line1": "1 53718U 22107U   26192.75002315  .00006264  00000+0  28530-3 0  9997", "line2": "2 53718  53.1592  56.8528 0000140 133.1381 230.9784 15.21946629  5722"}, {"name": "STARLINK-4644", "line1": "1 53719U 22107V   26192.71927861  .00000067  00000+0  22292-4 0  9991", "line2": "2 53719  53.1604  26.7163 0001267  84.8546 275.2590 15.08831364213568"}, {"name": "STARLINK-4642", "line1": "1 53720U 22107W   26192.75002315 -.00009613  00000+0 -26503-3 0  9991", "line2": "2 53720  53.1600  54.4156 0001262 102.7627  80.0249 15.35398913  5673"}, {"name": "STARLINK-4707", "line1": "1 53721U 22107X   26192.75002315  .00006109  00000+0  27209-3 0  9991", "line2": "2 53721  53.1592  56.0717 0000911 116.5013 296.7548 15.22765531  5721"}, {"name": "STARLINK-4700", "line1": "1 53722U 22107Y   26192.75002315  .00007321  00000+0  31567-3 0  9991", "line2": "2 53722  53.1591  56.0147 0001028 120.5777 321.3987 15.23578217  5726"}, {"name": "STARLINK-4705", "line1": "1 53723U 22107Z   26192.75002315  .00007414  00000+0  35922-3 0  9994", "line2": "2 53723  53.1595  55.9984 0002124  89.1722   3.5546 15.19525417  5578"}, {"name": "STARLINK-4663", "line1": "1 53724U 22107AA  26192.75002315  .00012826  00000+0  48443-3 0  9990", "line2": "2 53724  53.1596  55.2089 0001276  97.3235  39.4822 15.27362767  5724"}, {"name": "STARLINK-4697", "line1": "1 53726U 22107AC  26192.75002315  .00004639  00000+0  19930-3 0  9994", "line2": "2 53726  53.1591  55.9780 0001908  68.1754  33.1769 15.24572744  5726"}, {"name": "STARLINK-4701", "line1": "1 53727U 22107AD  26192.75002315  .00005974  00000+0  26615-3 0  9996", "line2": "2 53727  53.1594  56.1069 0001089  97.5370 297.8309 15.22795857  5564"}, {"name": "STARLINK-4640", "line1": "1 53728U 22107AE  26192.75814830  .00020702  00000+0  60550-3 0  9992", "line2": "2 53728  53.1608  54.1209 0001181 198.9912 161.1047 15.35256298213328"}, {"name": "STARLINK-4651", "line1": "1 53729U 22107AF  26191.02920934 -.00000047  00000+0  14856-4 0  9995", "line2": "2 53729  53.1616  64.6261 0001351  93.6811 266.4335 15.09991841213050"}, {"name": "STARLINK-4641", "line1": "1 53730U 22107AG  26192.79004246  .00003339  00000+0  10657-3 0  9991", "line2": "2 53730  53.1603  54.3152 0001293  90.7304 269.3847 15.35402989213322"}, {"name": "STARLINK-4636", "line1": "1 53731U 22107AH  26192.74590194  .00017443  00000+0  86594-3 0  9993", "line2": "2 53731  53.2119  51.4857 0004846 145.3571 214.7741 15.17787140213395"}, {"name": "STARLINK-4661", "line1": "1 53732U 22107AJ  26192.75002315  .00014776  00000+0  47789-3 0  9997", "line2": "2 53732  53.1609  54.7450 0000975  67.4949 308.6270 15.32305605  5721"}, {"name": "STARLINK-4574", "line1": "1 53733U 22107AK  26192.75615897  .00001860  00000+0  67882-4 0  9990", "line2": "2 53733  53.1601  54.1117 0001295  95.7955 264.3195 15.33551550213352"}, {"name": "STARLINK-4616", "line1": "1 53734U 22107AL  26192.75002315  .00011209  00000+0  52467-3 0  9996", "line2": "2 53734  53.1609  56.5314 0001699  74.3216 103.3837 15.20217661  5720"}, {"name": "STARLINK-4618", "line1": "1 53735U 22107AM  26192.75002315  .00028504  00000+0  87649-3 0  9993", "line2": "2 53735  53.1612  64.4169 0001844  84.7089  91.8091 15.33483990  5723"}, {"name": "STARLINK-4652", "line1": "1 53736U 22107AN  26192.75002315  .00019498  00000+0  65341-3 0  9991", "line2": "2 53736  53.1595  55.0182 0001745  91.0097 146.5468 15.30950349  5725"}, {"name": "STARLINK-4662", "line1": "1 53738U 22107AQ  26192.75002315  .00016576  00000+0  48597-3 0  9991", "line2": "2 53738  53.1606  64.4790 0001266  86.2651  57.3671 15.35339381  5726"}, {"name": "STARLINK-4607", "line1": "1 53740U 22107AS  26192.75002315  .00020966  00000+0  83773-3 0  9997", "line2": "2 53740  53.1597  64.9414 0000944  85.0397 184.3648 15.25107367  5723"}, {"name": "STARLINK-4637", "line1": "1 53742U 22107AU  26192.75002315  .00230275  00000+0  68829-2 0  9999", "line2": "2 53742  53.1730  64.6776 0001128 103.0416 300.5273 15.33166441  5565"}, {"name": "STARLINK-4645", "line1": "1 53743U 22107AV  26192.25489672  .00000196  00000+0  16528-4 0  9998", "line2": "2 53743  53.1612  66.6530 0001202  83.7608 276.3532 15.35397238213285"}, {"name": "STARLINK-4670", "line1": "1 53744U 22107AW  26192.78920158  .00000407  00000+0  43681-4 0  9991", "line2": "2 53744  53.1607  66.3968 0001489  79.8254 280.2905 15.08834724213332"}, {"name": "STARLINK-4656", "line1": "1 53745U 22107AX  26192.75002315 -.00012454  00000+0 -34659-3 0  9996", "line2": "2 53745  53.1609  64.4039 0001089  80.3528 103.9886 15.35410982  5727"}, {"name": "STARLINK-4589", "line1": "1 53746U 22107AY  26192.75002315 -.00015322  00000+0 -45526-3 0  9999", "line2": "2 53746  53.1608  64.4754 0001214  87.8349  59.8074 15.33563712  5719"}]